OBJECT_NAME,OBJECT_ID,EPOCH,MEAN_MOTION,ECCENTRICITY,INCLINATION,RA_OF_ASC_NODE,ARG_OF_PERICENTER,MEAN_ANOMALY,EPHEMERIS_TYPE,CLASSIFICATION_TYPE,NORAD_CAT_ID,ELEMENT_SET_NO,REV_AT_EPOCH,BSTAR,MEAN_MOTION_DOT,MEAN_MOTION_DDOT
GAOFEN-11 01,2018-063A,2026-07-04T23:49:14.009664,15.55836478,.0002114,97.1273,252.8273,251.7957,108.3068,0,U,43585,999,44311,.50309269E-3,.34778E-3,0
ICESAT-2,2018-070A,2026-07-04T18:27:19.076256,15.28213129,.00060644,92.0090,295.7301,87.2611,272.9333,0,U,43613,999,43514,.68551247E-3,.18868E-3,0
HYSIS,2018-096A,2026-07-04T22:35:24.938304,14.78653643,.00018632,97.9830,252.5494,90.2232,269.9193,0,U,43719,999,41004,.17637451E-3,.124E-4,0
KAZSTSAT,2018-099AB,2026-07-04T12:13:51.679488,14.99932801,.00081693,97.4306,216.6545,19.9379,340.2163,0,U,43783,999,41390,.19997988E-3,.2428E-4,0
SAUDISAT 5A,2018-102A,2026-07-04T23:25:07.358304,15.28242717,.00111258,97.3053,247.2151,75.3663,284.8809,0,U,43831,999,41839,.31481064E-3,.8607E-4,0
SAUDISAT 5B,2018-102C,2026-07-04T23:48:01.844928,15.28490374,.00118755,97.3162,250.3326,76.9018,283.3546,0,U,43833,999,41851,.31049291E-3,.8554E-4,0
GAOFEN-10R,2019-066A,2026-07-04T23:10:57.217728,14.83041606,.0007193,98.0505,139.6749,79.4113,280.7910,0,U,44622,999,36501,.18761808E-3,.1472E-4,0
CARTOSAT-3,2019-081A,2026-07-04T22:34:20.841600,15.19269213,.00135159,97.4292,247.5212,92.6818,267.5964,0,U,44804,999,36616,.26602619E-3,.5555E-4,0
GAOFEN-12 01,2019-082A,2026-07-04T23:46:13.037088,14.80473906,.00015142,97.8104,191.9000,53.6585,306.4767,0,U,44819,999,35672,.69393376E-4,.48E-5,0
CSG-1,2019-092A,2026-07-03T10:57:11.816928,14.82158959,.0001425,97.8892,7.8235,91.1235,269.0142,0,U,44873,999,35388,.74034E-4,.537E-5,0
NEMO-HD,2020-061F,2026-07-04T22:38:37.493664,15.44974060,.00013192,97.1906,247.7202,74.5324,285.6070,0,U,46277,999,32472,.35828335E-3,.16805E-3,0
SENTINEL-6A,2020-086A,2026-07-04T11:54:50.478912,12.80930021,.00078375,66.0414,99.1022,270.0559,89.9558,0,U,46984,999,26254,.98233676E-4,-.38E-6,0
CAS500-1,2021-022A,2026-07-04T23:12:55.699776,15.20187161,.00037847,97.3876,80.8589,209.9188,150.1832,0,U,47932,999,29346,.48353014E-3,.10412E-3,0
GAOFEN-12 02,2021-026A,2026-07-05T00:04:53.961312,14.80310643,.00051343,97.9927,184.1115,160.2523,199.8888,0,U,48079,999,28439,.65436107E-4,.446E-5,0
PLEIADES NEO 3,2021-034A,2026-07-04T22:43:11.164800,14.81671552,.00013301,97.8936,260.4575,90.9147,269.2218,0,U,48268,999,28028,-.35385575E-4,-.33E-5,0
PLEIADES NEO 4,2021-073E,2026-07-03T11:52:22.041120,14.81667489,.0001334,97.8935,259.0231,88.9745,271.1620,0,U,49070,999,26378,.7652E-4,.55E-5,0
LANDSAT 9,2021-088A,2026-07-04T21:55:14.608992,14.57110528,.0001166,98.2273,255.8758,88.7150,271.4182,0,U,49260,999,25358,.11977867E-3,.494E-5,0
CSG-2,2022-008A,2026-07-04T23:24:31.752864,14.82155997,.00015505,97.8887,9.3147,83.8252,276.3138,0,U,51444,999,23922,.10459185E-4,.31E-6,0
GAOFEN-12 03,2022-069A,2026-07-04T23:15:05.655744,14.80062554,.00024465,97.8253,73.3893,83.1189,277.0302,0,U,52912,999,21724,.13018851E-3,.935E-5,0
SWOT,2022-173A,2026-07-04T22:09:30.375072,14.00171708,.00003085,77.6102,11.3657,81.8639,278.2548,0,U,54754,999,18163,.47988307E-4,.68E-6,0
GAOFEN-12 04,2023-123A,2026-07-04T23:40:29.229888,14.79762237,.00039009,97.9110,103.7410,71.0083,289.1551,0,U,57654,999,15526,.17694854E-3,.1279E-4,0
PARS 1,2024-039Q,2026-07-04T23:39:14.930208,15.46119418,.00109095,97.4837,167.4708,59.3305,300.9018,0,U,59065,999,13139,.33312303E-3,.16271E-3,0
RESURS-P 4,2024-061A,2026-07-04T23:05:03.980832,15.32236513,.00031385,97.2759,133.5523,104.7296,255.4294,0,U,59371,999,12648,.12880501E-3,.3932E-4,0
LEGION 1,2024-081A,2026-07-04T15:27:21.839328,15.16793609,.0007986,97.5010,263.3155,313.2266,46.8300,0,U,59625,999,12018,.32855934E-3,.6392E-4,0
LEGION 2,2024-081B,2026-07-04T16:10:53.802048,15.16773159,.0009839,97.5011,263.4426,275.3448,84.6663,0,U,59626,999,12019,.32354183E-3,.6292E-4,0
ALOS-4 (DAICHI-4),2024-123A,2026-07-04T22:42:11.471904,14.79474588,.0001606,97.9218,282.8672,97.6410,262.4984,0,U,60182,999,10850,.30931476E-3,.2259E-4,0
LEGION 3,2024-146A,2026-07-04T17:23:57.026112,15.15608111,.00088742,45.0024,296.5071,279.8980,80.0897,0,U,60452,999,10468,.33396322E-3,.6198E-4,0
LEGION 4,2024-146B,2026-07-04T20:36:16.764768,15.16182240,.00116773,45.0022,27.6828,47.4686,312.7177,0,U,60453,999,10355,.33709956E-3,.6368E-4,0
SENTINEL-2C,2024-157A,2026-07-04T15:43:16.646592,14.30813426,.00009181,98.5686,260.1897,94.0986,266.0302,0,U,60989,999,9548,.42956594E-4,.69E-6,0
IONOSFERA-M 1,2024-199A,2026-07-04T15:13:49.725120,14.22757784,.00022035,98.7150,58.6208,87.0812,273.0618,0,U,61735,999,13018,.58810206E-4,.88E-6,0
