GAOFEN-11 01            
1 43585U 18063A   26185.99252326  .00034778  00000+0  50309-3 0  9991
2 43585  97.1273 252.8273 0002114 251.7957 108.3068 15.55836478443110
ICESAT-2                
1 43613U 18070A   26185.76897079  .00018868  00000+0  68551-3 0  9996
2 43613  92.0090 295.7301 0006064  87.2611 272.9333 15.28213129435147
HYSIS                   
1 43719U 18096A   26185.94126086  .00001240  00000+0  17637-3 0  9999
2 43719  97.9830 252.5494 0001863  90.2232 269.9193 14.78653643410044
KAZSTSAT                
1 43783U 18099AB  26185.50962592  .00002428  00000+0  19998-3 0  9996
2 43783  97.4306 216.6545 0008169  19.9379 340.2163 14.99932801413909
SAUDISAT 5A             
1 43831U 18102A   26185.97577961  .00008607  00000+0  31481-3 0  9994
2 43831  97.3053 247.2151 0011125  75.3663 284.8809 15.28242717418393
SAUDISAT 5B             
1 43833U 18102C   26185.99168802  .00008554  00000+0  31049-3 0  9999
2 43833  97.3162 250.3326 0011875  76.9018 283.3546 15.28490374418518
GAOFEN-10R              
1 44622U 19066A   26185.96594002  .00001472  00000+0  18762-3 0  9997
2 44622  98.0505 139.6749 0007193  79.4113 280.7910 14.83041606365016
CARTOSAT-3              
1 44804U 19081A   26185.94051900  .00005555  00000+0  26603-3 0  9998
2 44804  97.4292 247.5212 0013515  92.6818 267.5964 15.19269213366167
GAOFEN-12 01            
1 44819U 19082A   26185.99042867  .00000480  00000+0  69393-4 0  9998
2 44819  97.8104 191.9000 0001514  53.6585 306.4767 14.80473906356728
CSG-1                   
1 44873U 19092A   26184.45638677  .00000537  00000+0  74034-4 0  9990
2 44873  97.8892   7.8235 0001425  91.1235 269.0142 14.82158959353882
NEMO-HD                 
1 46277U 20061F   26185.94348951  .00016805  00000+0  35828-3 0  9998
2 46277  97.1906 247.7202 0001319  74.5324 285.6070 15.44974060324729
SENTINEL-6A             
1 46984U 20086A   26185.49641758 -.00000038  00000+0  98234-4 0  9994
2 46984  66.0414  99.1022 0007837 270.0559  89.9558 12.80930021262549
CAS500-1                
1 47932U 21022A   26185.96731134  .00010412  00000+0  48353-3 0  9991
2 47932  97.3876  80.8589 0003784 209.9188 150.1832 15.20187161293460
GAOFEN-12 02            
1 48079U 21026A   26186.00340233  .00000446  00000+0  65436-4 0  9998
2 48079  97.9927 184.1115 0005134 160.2523 199.8888 14.80310643284393
PLEIADES NEO 3          
1 48268U 21034A   26185.94665700 -.00000330  00000+0 -35386-4 0  9993
2 48268  97.8936 260.4575 0001330  90.9147 269.2218 14.81671552280288
PLEIADES NEO 4          
1 49070U 21073E   26184.49469955  .00000550  00000+0  76520-4 0  9998
2 49070  97.8935 259.0231 0001334  88.9745 271.1620 14.81667489263786
LANDSAT 9               
1 49260U 21088A   26185.91336353  .00000494  00000+0  11978-3 0  9990
2 49260  98.2273 255.8758 0001166  88.7150 271.4182 14.57110528253589
CSG-2                   
1 51444U 22008A   26185.97536751  .00000031  00000+0  10459-4 0  9991
2 51444  97.8887   9.3147 0001550  83.8252 276.3138 14.82155997239229
GAOFEN-12 03            
1 52912U 22069A   26185.96881546  .00000935  00000+0  13019-3 0  9990
2 52912  97.8253  73.3893 0002446  83.1189 277.0302 14.80062554217246
SWOT                    
1 54754U 22173A   26185.92326823  .00000068  00000+0  47988-4 0  9990
2 54754  77.6102  11.3657 0000308  81.8639 278.2548 14.00171708181633
GAOFEN-12 04            
1 57654U 23123A   26185.98644942  .00001279  00000+0  17695-3 0  9995
2 57654  97.9110 103.7410 0003900  71.0083 289.1551 14.79762237155261
PARS 1                  
1 59065U 24039Q   26185.98558947  .00016271  00000+0  33312-3 0  9991
2 59065  97.4837 167.4708 0010909  59.3305 300.9018 15.46119418131390
RESURS-P 4              
1 59371U 24061A   26185.96185163  .00003932  00000+0  12881-3 0  9998
2 59371  97.2759 133.5523 0003138 104.7296 255.4294 15.32236513126485
LEGION 1                
1 59625U 24081A   26185.64400277  .00006392  00000+0  32856-3 0  9990
2 59625  97.5010 263.3155 0007986 313.2266  46.8300 15.16793609120189
LEGION 2                
1 59626U 24081B   26185.67423382  .00006292  00000+0  32354-3 0  9998
2 59626  97.5011 263.4426 0009839 275.3448  84.6663 15.16773159120193
ALOS-4 (DAICHI-4)       
1 60182U 24123A   26185.94596611  .00002259  00000+0  30931-3 0  9998
2 60182  97.9218 282.8672 0001606  97.6410 262.4984 14.79474588108506
LEGION 3                
1 60452U 24146A   26185.72496558  .00006198  00000+0  33396-3 0  9992
2 60452  45.0024 296.5071 0008874 279.8980  80.0897 15.15608111104684
LEGION 4                
1 60453U 24146B   26185.85852737  .00006368  00000+0  33710-3 0  9991
2 60453  45.0022  27.6828 0011677  47.4686 312.7177 15.16182240103555
SENTINEL-2C             
1 60989U 24157A   26185.65505378  .00000069  00000+0  42957-4 0  9997
2 60989  98.5686 260.1897 0000918  94.0986 266.0302 14.30813426 95480
IONOSFERA-M 1           
1 61735U 24199A   26185.63460330  .00000088  00000+0  58810-4 0  9995
2 61735  98.7150  58.6208 0002203  87.0812 273.0618 14.22757784130183
